start=new Date('2022-12-12T00:00:00.000Z').valueOf();
sats=[{"REF_FRAME":"TEME","INCLINATION":"53.0531","CENTER_NAME":"EARTH","PERIAPSIS":"545.992","ECCENTRICITY":"0.00017210","OBJECT_NAME":"STARLINK-1730","SITE":"AFETR","TLE_LINE2":"2 46563  53.0531  72.5763 0001721  53.5722 306.5426 15.06409660121308","EPHEMERIS_TYPE":"0","MEAN_MOTION":"15.06409660","ELEMENT_SET_NO":"999","APOAPSIS":"548.376","TLE_LINE1":"1 46563U 20070AH  22345.51862107  .00011207  00000-0  76983-3 0  9996","OBJECT_ID":"2020-070AH","TIME_SYSTEM":"UTC","RCS_SIZE":"LARGE","ARG_OF_PERICENTER":"53.5722","REV_AT_EPOCH":"12130","MEAN_ANOMALY":"306.5426","RA_OF_ASC_NODE":"72.5763","MEAN_MOTION_DOT":"0.00011207","NORAD_CAT_ID":"46563","COUNTRY_CODE":"US","PERIOD":"95.592","OBJECT_TYPE":"PAYLOAD","CLASSIFICATION_TYPE":"U","SEMIMAJOR_AXIS":"6925.319","FILE":"3691213","DECAY_DATE":null,"MEAN_ELEMENT_THEORY":"SGP4","GP_ID":"220051063","LAUNCH_DATE":"2020-10-06","MEAN_MOTION_DDOT":"0.0000000000000","BSTAR":"0.00076983000000","EPOCH":"2022-12-11T12:26:48.860448"},{"OBJECT_NAME":"STARLINK-1733","PERIAPSIS":"545.825","ECCENTRICITY":"0.00020250","CENTER_NAME":"EARTH","REF_FRAME":"TEME","INCLINATION":"53.0587","OBJECT_ID":"2020-070AJ","TIME_SYSTEM":"UTC","TLE_LINE1":"1 46564U 20070AJ  22345.56653936  .00002417  00000-0  18111-3 0  9992","MEAN_MOTION":"15.06395363","APOAPSIS":"548.630","ELEMENT_SET_NO":"999","EPHEMERIS_TYPE":"0","TLE_LINE2":"2 46564  53.0587  72.3455 0002025  51.4099 308.7071 15.06395363121313","SITE":"AFETR","COUNTRY_CODE":"US","PERIOD":"95.592","MEAN_MOTION_DOT":"0.00002417","NORAD_CAT_ID":"46564","RA_OF_ASC_NODE":"72.3455","MEAN_ANOMALY":"308.7071","REV_AT_EPOCH":"12131","ARG_OF_PERICENTER":"51.4099","RCS_SIZE":"LARGE","EPOCH":"2022-12-11T13:35:49.000704","LAUNCH_DATE":"2020-10-06","MEAN_MOTION_DDOT":"0.0000000000000","BSTAR":"0.00018111000000","GP_ID":"220051815","MEAN_ELEMENT_THEORY":"SGP4","FILE":"3691213","DECAY_DATE":null,"CLASSIFICATION_TYPE":"U","SEMIMAJOR_AXIS":"6925.363","OBJECT_TYPE":"PAYLOAD"},{"ARG_OF_PERICENTER":"60.6309","REV_AT_EPOCH":"12100","RCS_SIZE":"LARGE","MEAN_ANOMALY":"299.4845","RA_OF_ASC_NODE":"72.4646","COUNTRY_CODE":"US","PERIOD":"95.593","MEAN_MOTION_DOT":"0.00001301","NORAD_CAT_ID":"46565","SEMIMAJOR_AXIS":"6925.407","CLASSIFICATION_TYPE":"U","OBJECT_TYPE":"PAYLOAD","MEAN_ELEMENT_THEORY":"SGP4","DECAY_DATE":null,"FILE":"3690860","EPOCH":"2022-12-11T13:03:58.321728","LAUNCH_DATE":"2020-10-06","MEAN_MOTION_DDOT":"0.0000000000000","BSTAR":"0.00010626000000","GP_ID":"220022695","INCLINATION":"53.0567","REF_FRAME":"TEME","CENTER_NAME":"EARTH","PERIAPSIS":"546.127","ECCENTRICITY":"0.00016540","OBJECT_NAME":"STARLINK-1735","TLE_LINE2":"2 46565  53.0567  72.4646 0001654  60.6309 299.4845 15.06380926121008","SITE":"AFETR","APOAPSIS":"548.417","ELEMENT_SET_NO":"999","MEAN_MOTION":"15.06380926","EPHEMERIS_TYPE":"0","TIME_SYSTEM":"UTC","OBJECT_ID":"2020-070AK","TLE_LINE1":"1 46565U 20070AK  22345.54442502  .00001301  00000-0  10626-3 0  9990"},{"OBJECT_TYPE":"PAYLOAD","CLASSIFICATION_TYPE":"U","SEMIMAJOR_AXIS":"6925.376","DECAY_DATE":null,"FILE":"3691993","MEAN_ELEMENT_THEORY":"SGP4","GP_ID":"220096951","LAUNCH_DATE":"2020-10-06","MEAN_MOTION_DDOT":"0.0000000000000","BSTAR":"0.00015576000000","EPOCH":"2022-12-11T17:29:22.004160","RCS_SIZE":"LARGE","REV_AT_EPOCH":"12133","ARG_OF_PERICENTER":"64.0694","MEAN_ANOMALY":"296.0457","RA_OF_ASC_NODE":"71.6352","MEAN_MOTION_DOT":"0.00002039","NORAD_CAT_ID":"46566","PERIOD":"95.593","COUNTRY_CODE":"US","SITE":"AFETR","TLE_LINE2":"2 46566  53.0570  71.6352 0001574  64.0694 296.0457 15.06390890121333","EPHEMERIS_TYPE":"0","APOAPSIS":"548.332","ELEMENT_SET_NO":"999","MEAN_MOTION":"15.06390890","TLE_LINE1":"1 46566U 20070AL  22345.72872690  .00002039  00000-0  15576-3 0  9994","TIME_SYSTEM":"UTC","OBJECT_ID":"2020-070AL","INCLINATION":"53.0570","REF_FRAME":"TEME","CENTER_NAME":"EARTH","ECCENTRICITY":"0.00015740","PERIAPSIS":"546.151","OBJECT_NAME":"STARLINK-1740"},{"RA_OF_ASC_NODE":"72.3895","PERIOD":"95.592","COUNTRY_CODE":"US","NORAD_CAT_ID":"46567","MEAN_MOTION_DOT":"0.00009672","ARG_OF_PERICENTER":"63.5130","REV_AT_EPOCH":"12131","RCS_SIZE":"LARGE","MEAN_ANOMALY":"296.6029","MEAN_MOTION_DDOT":"0.0000000000000","LAUNCH_DATE":"2020-10-06","BSTAR":"0.00066720000000","EPOCH":"2022-12-11T13:25:12.105696","GP_ID":"220023329","SEMIMAJOR_AXIS":"6925.333","CLASSIFICATION_TYPE":"U","OBJECT_TYPE":"PAYLOAD","MEAN_ELEMENT_THEORY":"SGP4","FILE":"3690900","DECAY_DATE":null,"PERIAPSIS":"546.052","ECCENTRICITY":"0.00016550","OBJECT_NAME":"STARLINK-1741","REF_FRAME":"TEME","INCLINATION":"53.0566","CENTER_NAME":"EARTH","OBJECT_ID":"2020-070AM","TIME_SYSTEM":"UTC","TLE_LINE1":"1 46567U 20070AM  22345.55916789  .00009672  00000-0  66720-3 0  9991","TLE_LINE2":"2 46567  53.0566  72.3895 0001655  63.5130 296.6029 15.06405172121317","SITE":"AFETR","MEAN_MOTION":"15.06405172","APOAPSIS":"548.344","ELEMENT_SET_NO":"999","EPHEMERIS_TYPE":"0"},{"EPHEMERIS_TYPE":"0","APOAPSIS":"548.582","ELEMENT_SET_NO":"999","MEAN_MOTION":"15.06388548","SITE":"AFETR","TLE_LINE2":"2 46569  53.0569  72.3278 0001925  42.8105 317.3034 15.06388548121313","TLE_LINE1":"1 46569U 20070AP  22345.57391039  .00001644  00000-0  12930-3 0  9995","TIME_SYSTEM":"UTC","OBJECT_ID":"2020-070AP","CENTER_NAME":"EARTH","INCLINATION":"53.0569","REF_FRAME":"TEME","OBJECT_NAME":"STARLINK-1747","PERIAPSIS":"545.916","ECCENTRICITY":"0.00019250","DECAY_DATE":null,"FILE":"3691213","MEAN_ELEMENT_THEORY":"SGP4","OBJECT_TYPE":"PAYLOAD","SEMIMAJOR_AXIS":"6925.384","CLASSIFICATION_TYPE":"U","GP_ID":"220051566","EPOCH":"2022-12-11T13:46:25.857696","LAUNCH_DATE":"2020-10-06","MEAN_MOTION_DDOT":"0.0000000000000","BSTAR":"0.00012930000000","MEAN_ANOMALY":"317.3034","RCS_SIZE":"LARGE","ARG_OF_PERICENTER":"42.8105","REV_AT_EPOCH":"12131","MEAN_MOTION_DOT":"0.00001644","NORAD_CAT_ID":"46569","COUNTRY_CODE":"US","PERIOD":"95.593","RA_OF_ASC_NODE":"72.3278"},{"TLE_LINE1":"1 46570U 20070AQ  22345.70114055  .00039633  00000-0  21633-2 0  9991","TIME_SYSTEM":"UTC","OBJECT_ID":"2020-070AQ","TLE_LINE2":"2 46570  53.0550  67.1312 0003052 260.9425  99.1222 15.13981615121391","SITE":"AFETR","EPHEMERIS_TYPE":"0","ELEMENT_SET_NO":"999","APOAPSIS":"526.181","MEAN_MOTION":"15.13981615","PERIAPSIS":"521.967","ECCENTRICITY":"0.00030520","OBJECT_NAME":"STARLINK-1748","INCLINATION":"53.0550","REF_FRAME":"TEME","CENTER_NAME":"EARTH","GP_ID":"220096452","BSTAR":"0.00216330000000","LAUNCH_DATE":"2020-10-06","MEAN_MOTION_DDOT":"0.0000000000000","EPOCH":"2022-12-11T16:49:38.543520","OBJECT_TYPE":"PAYLOAD","CLASSIFICATION_TYPE":"U","SEMIMAJOR_AXIS":"6902.209","DECAY_DATE":null,"FILE":"3691993","MEAN_ELEMENT_THEORY":"SGP4","RA_OF_ASC_NODE":"67.1312","MEAN_MOTION_DOT":"0.00039633","NORAD_CAT_ID":"46570","COUNTRY_CODE":"US","PERIOD":"95.113","RCS_SIZE":"LARGE","ARG_OF_PERICENTER":"260.9425","REV_AT_EPOCH":"12139","MEAN_ANOMALY":"99.1222"},{"SITE":"AFETR","TLE_LINE2":"2 46572  53.0581  92.1339 0001731  65.5479 294.5690 15.06398655121033","EPHEMERIS_TYPE":"0","MEAN_MOTION":"15.06398655","APOAPSIS":"548.416","ELEMENT_SET_NO":"999","TLE_LINE1":"1 46572U 20070AS  22345.61165728  .00003494  00000-0  25338-3 0  9999","OBJECT_ID":"2020-070AS","TIME_SYSTEM":"UTC","REF_FRAME":"TEME","INCLINATION":"53.0581","CENTER_NAME":"EARTH","ECCENTRICITY":"0.00017310","PERIAPSIS":"546.019","OBJECT_NAME":"STARLINK-1531","OBJECT_TYPE":"PAYLOAD","CLASSIFICATION_TYPE":"U","SEMIMAJOR_AXIS":"6925.353","FILE":"3691993","DECAY_DATE":null,"MEAN_ELEMENT_THEORY":"SGP4","GP_ID":"220095951","BSTAR":"0.00025338000000","LAUNCH_DATE":"2020-10-06","MEAN_MOTION_DDOT":"0.0000000000000","EPOCH":"2022-12-11T14:40:47.188992","RCS_SIZE":"LARGE","ARG_OF_PERICENTER":"65.5479","REV_AT_EPOCH":"12103","MEAN_ANOMALY":"294.5690","RA_OF_ASC_NODE":"92.1339","MEAN_MOTION_DOT":"0.00003494","NORAD_CAT_ID":"46572","COUNTRY_CODE":"US","PERIOD":"95.592"},{"PERIOD":"94.218","COUNTRY_CODE":"US","MEAN_MOTION_DOT":"0.01330424","NORAD_CAT_ID":"46573","RA_OF_ASC_NODE":"75.0747","MEAN_ANOMALY":"284.9437","ARG_OF_PERICENTER":"49.7831","REV_AT_EPOCH":"130","RCS_SIZE":"LARGE","BSTAR":"0.04325200000000","LAUNCH_DATE":"2020-10-06","MEAN_MOTION_DDOT":"0.0000000000000","EPOCH":"2022-12-11T22:00:01.999584","GP_ID":"220096202","MEAN_ELEMENT_THEORY":"SGP4","FILE":"3691993","DECAY_DATE":null,"CLASSIFICATION_TYPE":"U","SEMIMAJOR_AXIS":"6858.833","OBJECT_TYPE":"PAYLOAD","OBJECT_NAME":"STARLINK-1650","PERIAPSIS":"479.529","ECCENTRICITY":"0.00017040","CENTER_NAME":"EARTH","REF_FRAME":"TEME","INCLINATION":"53.0545","OBJECT_ID":"2020-070AT","TIME_SYSTEM":"UTC","TLE_LINE1":"1 46573U 20070AT  22345.91668981  .01330424  00000-0  43252-1 0  9992","MEAN_MOTION":"15.28366130","ELEMENT_SET_NO":"999","APOAPSIS":"481.867","EPHEMERIS_TYPE":"0","TLE_LINE2":"2 46573  53.0545  75.0747 0001704  49.7831 284.9437 15.28366130  1309","SITE":"AFETR"},{"PERIAPSIS":"545.853","ECCENTRICITY":"0.00019690","OBJECT_NAME":"STARLINK-1660","INCLINATION":"53.0557","REF_FRAME":"TEME","CENTER_NAME":"EARTH","TIME_SYSTEM":"UTC","OBJECT_ID":"2020-070AU","TLE_LINE1":"1 46574U 20070AU  22345.64164319  .00006571  00000-0  45963-3 0  9994","TLE_LINE2":"2 46574  53.0557  77.0262 0001969  56.1871 303.9305 15.06398985121258","SITE":"AFETR","ELEMENT_SET_NO":"999","APOAPSIS":"548.580","MEAN_MOTION":"15.06398985","EPHEMERIS_TYPE":"0","RA_OF_ASC_NODE":"77.0262","PERIOD":"95.592","COUNTRY_CODE":"US","NORAD_CAT_ID":"46574","MEAN_MOTION_DOT":"0.00006571","ARG_OF_PERICENTER":"56.1871","REV_AT_EPOCH":"12125","RCS_SIZE":"LARGE","MEAN_ANOMALY":"303.9305","LAUNCH_DATE":"2020-10-06","MEAN_MOTION_DDOT":"0.0000000000000","EPOCH":"2022-12-11T15:23:57.971616","BSTAR":"0.00045963000000","GP_ID":"220096952","CLASSIFICATION_TYPE":"U","SEMIMAJOR_AXIS":"6925.352","OBJECT_TYPE":"PAYLOAD","MEAN_ELEMENT_THEORY":"SGP4","DECAY_DATE":null,"FILE":"3691993"}];
